{
  "type": "FeatureCollection",
  "features": [
    {
      "type": "Feature",
      "properties": {
        "norad_id": 66660,
        "name": "K-HERO",
        "group": "last-30-days",
        "lat": 24.188763122065307,
        "lon": 101.1147502763084,
        "alt_km": 591.3035683228909,
        "timestamp": "2025-12-16T10:53:44.206049+00:00",
        "meta_object_name": "K-HERO",
        "meta_object_id": "2025-274L",
        "meta_epoch": "2025-12-15T18:06:54.387360",
        "meta_mean_motion": 14.92979054,
        "meta_eccentricity": 0.00124662,
        "meta_inclination": 97.7394,
        "meta_ra_of_asc_node": 276.9248,
        "meta_arg_of_pericenter": 269.5758,
        "meta_mean_anomaly": 90.4033,
        "meta_ephemeris_type": 0,
        "meta_classification_type": "U",
        "meta_norad_cat_id": 66660,
        "meta_element_set_no": 999,
        "meta_rev_at_epoch": 285,
        "meta_bstar": 0.00027393468,
        "meta_mean_motion_dot": 2.793e-05,
        "meta_mean_motion_ddot": 0,
        "tle_line1": "1 66660U 25274L   25349.75479615  .00002793  00000+0  27393-3 0  9998",
        "tle_line2": "2 66660  97.7394 276.9248 0012466 269.5758  90.4033 14.92979054  2858"
      },
      "geometry": {
        "type": "Point",
        "coordinates": [
          101.1147502763084,
          24.188763122065307
        ]
      }
    },
    {
      "type": "Feature",
      "properties": {
        "norad_id": 66661,
        "name": "SNUGLITE-III",
        "group": "last-30-days",
        "lat": 13.873334030382214,
        "lon": 99.54102988301415,
        "alt_km": 591.2775257753719,
        "timestamp": "2025-12-16T10:53:44.206060+00:00",
        "meta_object_name": "SNUGLITE-III",
        "meta_object_id": "2025-274M",
        "meta_epoch": "2025-12-15T21:17:12.323616",
        "meta_mean_motion": 14.93115525,
        "meta_eccentricity": 0.00131269,
        "meta_inclination": 97.7395,
        "meta_ra_of_asc_node": 277.0583,
        "meta_arg_of_pericenter": 270.4032,
        "meta_mean_anomaly": 89.5684,
        "meta_ephemeris_type": 0,
        "meta_classification_type": "U",
        "meta_norad_cat_id": 66661,
        "meta_element_set_no": 999,
        "meta_rev_at_epoch": 287,
        "meta_bstar": 0.00024514357,
        "meta_mean_motion_dot": 2.502e-05,
        "meta_mean_motion_ddot": 0,
        "tle_line1": "1 66661U 25274M   25349.88694819  .00002502  00000+0  24514-3 0  9998",
        "tle_line2": "2 66661  97.7395 277.0583 0013126 270.4032  89.5684 14.93115525  2873"
      },
      "geometry": {
        "type": "Point",
        "coordinates": [
          99.54102988301415,
          13.873334030382214
        ]
      }
    },
    {
      "type": "Feature",
      "properties": {
        "norad_id": 66662,
        "name": "2025-274N",
        "group": "last-30-days",
        "lat": 9.839049855070257,
        "lon": 98.96974560570797,
        "alt_km": 591.0592921663119,
        "timestamp": "2025-12-16T10:53:44.206072+00:00",
        "meta_object_name": "2025-274N",
        "meta_object_id": "2025-274N",
        "meta_epoch": "2025-12-15T18:03:08.565408",
        "meta_mean_motion": 14.93168669,
        "meta_eccentricity": 0.00135707,
        "meta_inclination": 97.7396,
        "meta_ra_of_asc_node": 276.9277,
        "meta_arg_of_pericenter": 270.4782,
        "meta_mean_anomaly": 89.4883,
        "meta_ephemeris_type": 0,
        "meta_classification_type": "U",
        "meta_norad_cat_id": 66662,
        "meta_element_set_no": 999,
        "meta_rev_at_epoch": 285,
        "meta_bstar": 0.00026675168,
        "meta_mean_motion_dot": 2.732e-05,
        "meta_mean_motion_ddot": 0,
        "tle_line1": "1 66662U 25274N   25349.75218247  .00002732  00000+0  26675-3 0  9997",
        "tle_line2": "2 66662  97.7396 276.9277 0013570 270.4782  89.4883 14.93168669  2853"
      },
      "geometry": {
        "type": "Point",
        "coordinates": [
          98.96974560570797,
          9.839049855070257
        ]
      }
    },
    {
      "type": "Feature",
      "properties": {
        "norad_id": 66663,
        "name": "KSLV-II R/B",
        "group": "last-30-days",
        "lat": 70.07467856852789,
        "lon": 119.79962925767245,
        "alt_km": 603.2679660006497,
        "timestamp": "2025-12-16T10:53:44.206082+00:00",
        "meta_object_name": "KSLV-II R/B",
        "meta_object_id": "2025-274P",
        "meta_epoch": "2025-12-15T07:08:48.551424",
        "meta_mean_motion": 14.97331425,
        "meta_eccentricity": 0.00530659,
        "meta_inclination": 97.741,
        "meta_ra_of_asc_node": 276.6145,
        "meta_arg_of_pericenter": 310.9589,
        "meta_mean_anomaly": 48.7046,
        "meta_ephemeris_type": 0,
        "meta_classification_type": "U",
        "meta_norad_cat_id": 66663,
        "meta_element_set_no": 999,
        "meta_rev_at_epoch": 279,
        "meta_bstar": 0.00035715479,
        "meta_mean_motion_dot": 4.203e-05,
        "meta_mean_motion_ddot": 0,
        "tle_line1": "1 66663U 25274P   25349.29778416  .00004203  00000+0  35715-3 0  9996",
        "tle_line2": "2 66663  97.7410 276.6145 0053065 310.9589  48.7046 14.97331425  2798"
      },
      "geometry": {
        "type": "Point",
        "coordinates": [
          119.79962925767245,
          70.07467856852789
        ]
      }
    },
    {
      "type": "Feature",
      "properties": {
        "norad_id": 66664,
        "name": "SOYUZ-MS 28",
        "group": "last-30-days",
        "lat": -44.127100160438516,
        "lon": -5.694829632909666,
        "alt_km": 420.1285965716497,
        "timestamp": "2025-12-16T10:53:44.206093+00:00",
        "meta_object_name": "SOYUZ-MS 28",
        "meta_object_id": "2025-275A",
        "meta_epoch": "2025-12-15T21:28:14.919168",
        "meta_mean_motion": 15.49611341,
        "meta_eccentricity": 0.0003169,
        "meta_inclination": 51.6305,
        "meta_ra_of_asc_node": 126.8563,
        "meta_arg_of_pericenter": 254.4589,
        "meta_mean_anomaly": 105.605,
        "meta_ephemeris_type": 0,
        "meta_classification_type": "U",
        "meta_norad_cat_id": 66664,
        "meta_element_set_no": 999,
        "meta_rev_at_epoch": 128,
        "meta_bstar": 0.00012896231,
        "meta_mean_motion_dot": 6.813e-05,
        "meta_mean_motion_ddot": 0,
        "tle_line1": "1 66664U 25275A   25349.89461712  .00006813  00000+0  12896-3 0  9996",
        "tle_line2": "2 66664  51.6305 126.8563 0003169 254.4589 105.6050 15.49611341  1280"
      },
      "geometry": {
        "type": "Point",
        "coordinates": [
          -5.694829632909666,
          -44.127100160438516
        ]
      }
    },
    {
      "type": "Feature",
      "properties": {
        "norad_id": 66791,
        "name": "STARLINK-35867",
        "group": "last-30-days",
        "lat": -22.931478477987444,
        "lon": -157.63284687536495,
        "alt_km": 339.5096929908077,
        "timestamp": "2025-12-16T10:53:44.206103+00:00",
        "meta_object_name": "STARLINK-35867",
        "meta_object_id": "2025-278A",
        "meta_epoch": "2025-12-15T22:00:01.999584",
        "meta_mean_motion": 15.78691215,
        "meta_eccentricity": 0.00015862,
        "meta_inclination": 42.9975,
        "meta_ra_of_asc_node": 232.6458,
        "meta_arg_of_pericenter": 280.5678,
        "meta_mean_anomaly": 228.72,
        "meta_ephemeris_type": 0,
        "meta_classification_type": "U",
        "meta_norad_cat_id": 66791,
        "meta_element_set_no": 999,
        "meta_rev_at_epoch": 346,
        "meta_bstar": -0.007794253,
        "meta_mean_motion_dot": -0.01244721,
        "meta_mean_motion_ddot": 0,
        "tle_line1": "1 66791U 25278A   25349.91668981 -.01244721  00000+0 -77943-2 0  9998",
        "tle_line2": "2 66791  42.9975 232.6458 0001586 280.5678 228.7200 15.78691215  3462"
      },
      "geometry": {
        "type": "Point",
        "coordinates": [
          -157.63284687536495,
          -22.931478477987444
        ]
      }
    },
    {
      "type": "Feature",
      "properties": {
        "norad_id": 66792,
        "name": "STARLINK-35990",
        "group": "last-30-days",
        "lat": -21.76542048816465,
        "lon": -156.00741382184933,
        "alt_km": 339.5249413297761,
        "timestamp": "2025-12-16T10:53:44.206113+00:00",
        "meta_object_name": "STARLINK-35990",
        "meta_object_id": "2025-278B",
        "meta_epoch": "2025-12-15T22:00:01.999584",
        "meta_mean_motion": 15.78703935,
        "meta_eccentricity": 0.00014987,
        "meta_inclination": 42.9973,
        "meta_ra_of_asc_node": 232.641,
        "meta_arg_of_pericenter": 276.5761,
        "meta_mean_anomaly": 234.5945,
        "meta_ephemeris_type": 0,
        "meta_classification_type": "U",
        "meta_norad_cat_id": 66792,
        "meta_element_set_no": 999,
        "meta_rev_at_epoch": 346,
        "meta_bstar": -0.0077950673,
        "meta_mean_motion_dot": -0.01245426,
        "meta_mean_motion_ddot": 0,
        "tle_line1": "1 66792U 25278B   25349.91668981 -.01245426  00000+0 -77951-2 0  9991",
        "tle_line2": "2 66792  42.9973 232.6410 0001498 276.5761 234.5945 15.78703935  3463"
      },
      "geometry": {
        "type": "Point",
        "coordinates": [
          -156.00741382184933,
          -21.76542048816465
        ]
      }
    }
  ]
}